SAUDISAT 1A             
1 26545U 00057A   12042.47121110  .00000489  00000-0  80465-4 0   708
2 26545  64.5556   9.9106 0034780 328.3030  31.5981 14.81362104614728
UNISAT                  
1 26547U 00057C   12042.25531586  .00001134  00000-0  15341-3 0   997
2 26547  64.5571 346.4002 0035337 337.9694  21.9891 14.83662783615195
SAUDISAT 1B             
1 26549U 00057E   12042.24328193  .00000466  00000-0  79591-4 0  1600
2 26549  64.5527  32.6726 0035142 336.5305  23.4194 14.80175053614247
MOZHAYETS               
1 27560U 02054B   12042.66794279  .00000314  00000-0  81232-4 0  2070
2 27560  97.9428 211.1234 0043655  69.9385 290.6510 14.55509839487740
SAUDISAT 1C             
1 27607U 02058C   12041.87975754  .00000390  00000-0  80114-4 0  6871
2 27607  64.5609 322.1178 0085128 273.2759  85.8586 14.72208666491227
UNISAT 2                
1 27608U 02058D   12042.03401655  .00000341  00000-0  69408-4 0  6942
2 27608  64.5584 273.3867 0068998 265.3661  93.9523 14.75077653492250
SAUDISAT 2              
1 28371U 04025F   12042.74055022  .00000100  00000-0  34437-4 0  5549
2 28371  97.9310  55.0082 0024941 279.3790  80.4580 14.53170118404160
UNISAT 3                
1 28373U 04025H   12042.08026762  .00000269  00000-0  88794-4 0  1601
2 28373  98.0857  21.4522 0071292  30.8055 329.7285 14.43735985401910
SSETI EXPRESS (XO-53)   
1 28894U 05043E   12042.14626373  .00000207  00000-0  52237-4 0  3002
2 28894  97.9275 272.5606 0017234 189.5986 170.4881 14.60017771335210
SAUDISAT 3              
1 31118U 07012B   12042.76348448  .00000075  00000-0  21172-4 0  1538
2 31118  97.8906 104.2872 0016402  35.2945 324.9338 14.68216599258435
